[{"OBJECT_NAME":"STARLINK-1770","OBJECT_ID":"2020-062BL","EPOCH":"2026-03-09T20:41:02.162976","MEAN_MOTION":15.64540917,"ECCENTRICITY":0.00022753,"INCLINATION":53.0424,"RA_OF_ASC_NODE":314.8666,"ARG_OF_PERICENTER":239.7768,"MEAN_ANOMALY":120.3022,"EPHEMERIS_TYPE":0,"CLASSIFICATION_TYPE":"U","NORAD_CAT_ID":46383,"ELEMENT_SET_NO":999,"REV_AT_EPOCH":30519,"BSTAR":0.0009673021,"MEAN_MOTION_DOT":0.00095604,"MEAN_MOTION_DDOT":0},{"OBJECT_NAME":"FLOCK 4BE-33","OBJECT_ID":"2024-149AL","EPOCH":"2026-03-09T17:20:04.915968","MEAN_MOTION":15.65897746,"ECCENTRICITY":0.00075386,"INCLINATION":97.3675,"RA_OF_ASC_NODE":153.2317,"ARG_OF_PERICENTER":245.686,"MEAN_ANOMALY":114.3613,"EPHEMERIS_TYPE":0,"CLASSIFICATION_TYPE":"U","NORAD_CAT_ID":60502,"ELEMENT_SET_NO":999,"REV_AT_EPOCH":8711,"BSTAR":0.0014774544,"MEAN_MOTION_DOT":0.00152703,"MEAN_MOTION_DDOT":0}]
